[
    {
        "Altitude(m)": 589524.6459901648,
        "Argument of Periapsis(deg)": -0.037671934638287344,
        "Eccentricity": 0.0,
        "Inclination(deg)": 97.0,
        "Latitude(deg)": -69.91452116793778,
        "Longitude(deg)": -24.419101057398436,
        "Mean Anomaly(deg)": 289.0754387819792,
        "RAAN(deg)": 60.00991175603085,
        "Satellite Name": "Starlink Shell 3 1737",
        "Satellite Number": 1737,
        "Semi-Major Axis(m)": 6938478.169268562,
        "Time(s)": 950
    },
    {
        "Altitude(m)": 589376.4047108742,
        "Argument of Periapsis(deg)": -0.03806848131869037,
        "Eccentricity": 0.0,
        "Inclination(deg)": 97.0,
        "Latitude(deg)": -69.33260450617867,
        "Longitude(deg)": -25.081580170088007,
        "Mean Anomaly(deg)": 289.7009149796842,
        "RAAN(deg)": 60.01001609030486,
        "Satellite Name": "Starlink Shell 3 1737",
        "Satellite Number": 1737,
        "Semi-Major Axis(m)": 6938478.169268562,
        "Time(s)": 960
    },
    {
        "Altitude(m)": 589224.0424410343,
        "Argument of Periapsis(deg)": -0.0384650279990934,
        "Eccentricity": 0.0,
        "Inclination(deg)": 97.0,
        "Latitude(deg)": -68.74852837090279,
        "Longitude(deg)": -25.711502197374212,
        "Mean Anomaly(deg)": 290.32639117738927,
        "RAAN(deg)": 60.01012042457886,
        "Satellite Name": "Starlink Shell 3 1737",
        "Satellite Number": 1737,
        "Semi-Major Axis(m)": 6938478.169268562,
        "Time(s)": 970
    },
    {
        "Altitude(m)": 589067.6206863705,
        "Argument of Periapsis(deg)": -0.03886157467949641,
        "Eccentricity": 0.0,
        "Inclination(deg)": 97.0,
        "Latitude(deg)": -68.16245989046553,
        "Longitude(deg)": -26.311377236618902,
        "Mean Anomaly(deg)": 290.9518673750943,
        "RAAN(deg)": 60.01022475885287,
        "Satellite Name": "Starlink Shell 3 1737",
        "Satellite Number": 1737,
        "Semi-Major Axis(m)": 6938478.169268562,
        "Time(s)": 980
    },
    {
        "Altitude(m)": 588907.2025768457,
        "Argument of Periapsis(deg)": -0.03925812135989944,
        "Eccentricity": 0.0,
        "Inclination(deg)": 97.0,
        "Latitude(deg)": -67.57454914425182,
        "Longitude(deg)": -26.88347423430468,
        "Mean Anomaly(deg)": 291.57734357279935,
        "RAAN(deg)": 60.010329093126884,
        "Satellite Name": "Starlink Shell 3 1737",
        "Satellite Number": 1737,
        "Semi-Major Axis(m)": 6938478.169268562,
        "Time(s)": 990
    }
]